NORAD_CAT_ID,OBJECT_NAME,OBJECT_TYPE,EPOCH,MEAN_MOTION,ECCENTRICITY,INCLINATION,RA_OF_ASC_NODE,ARG_OF_PERICENTER,MEAN_ANOMALY,BSTAR,MEAN_MOTION_DOT,MEAN_MOTION_DDOT,TLE_LINE0,TLE_LINE1,TLE_LINE2,SEMIMAJOR_AXIS,PERIOD,APOGEE,PERIGEE,DECAYED
52344.0,STARLINK-3851,PAYLOAD,2022-10-31 11:10:33,15.0883849,0.0002585,53.2177,299.3648,28.0115,332.1016,-3.9102e-05,-9.11e-06,0.0,0 STARLINK-3851,1 52344U 22045P   22304.46566076 -.00000911  00000-0 -39102-4 0  9994,2 52344  53.2177 299.3648 0002585  28.0115 332.1016 15.08838490 30817,6917.885,95.438,541.538,537.962,0.0
52344.0,STARLINK-3851,PAYLOAD,2022-11-01 11:01:20,15.08841521,0.000264,53.2167,294.9058,34.7527,325.3637,4.2569e-05,3.89e-06,0.0,0 STARLINK-3851,1 52344U 22045P   22305.45926007  .00000389  00000-0  42569-4 0  9996,2 52344  53.2167 294.9058 0002640  34.7527 325.3637 15.08841521 30963,6917.876,95.437,541.567,537.914,0.0
52344.0,STARLINK-3851,PAYLOAD,2022-11-02 02:55:12,15.08833211,0.0002581,53.2163,291.9318,33.1527,326.9627,0.00017434,2.487e-05,0.0,0 STARLINK-3851,1 52344U 22045P   22306.12166701  .00002487  00000-0  17434-3 0  9991,2 52344  53.2163 291.9318 0002581  33.1527 326.9627 15.08833211 31067,6917.901,95.438,541.552,537.981,0.0
52344.0,STARLINK-3851,PAYLOAD,2022-11-02 09:16:44,15.08831453,0.0002613,53.2168,290.7422,33.2682,326.8474,0.00011332,1.515e-05,0.0,0 STARLINK-3851,1 52344U 22045P   22306.38662974  .00001515  00000-0  11332-3 0  9994,2 52344  53.2168 290.7422 0002613  33.2682 326.8474 15.08831453 31104,6917.906999999997,95.438,541.5790000000002,537.964,0.0
52344.0,STARLINK-3851,PAYLOAD,2022-11-02 15:38:17,15.08829114,0.0002572,53.2167,289.553,32.2509,327.8640000000001,2.0514e-05,3.8e-07,0.0,0 STARLINK-3851,1 52344U 22045P   22306.65159214  .00000038  00000-0  20514-4 0  9994,2 52344  53.2167 289.5530 0002572  32.2509 327.8640 15.08829114 31141,6917.9140000000025,95.438,541.558,537.999,0.0
52344.0,STARLINK-3851,PAYLOAD,2022-11-03 04:21:22,15.08834272,0.0002489,53.2168,287.1752,35.1358,324.9798,8.9962e-05,1.143e-05,0.0,0 STARLINK-3851,1 52344U 22045P   22307.18151294  .00001143  00000-0  89962-4 0  9993,2 52344  53.2168 287.1752 0002489  35.1358 324.9798 15.08834272 31225,6917.898,95.438,541.485,538.0409999999998,0.0
52344.0,STARLINK-3851,PAYLOAD,2022-11-03 10:42:54,15.08842557,0.0002534,53.2164,285.9849,32.1045,328.0101,0.00025061,3.703e-05,0.0,0 STARLINK-3851,1 52344U 22045P   22307.44646773  .00003703  00000-0  25061-3 0  9996,2 52344  53.2164 285.9849 0002534  32.1045 328.0101 15.08842557 31267,6917.873000000001,95.437,541.491,537.985,0.0
52344.0,STARLINK-3851,PAYLOAD,2022-11-03 21:50:36,15.08864491,0.0002507,53.2161,283.9031,32.6654,327.4493,0.00062086,9.613e-05,0.0,0 STARLINK-3851,1 52344U 22045P   22307.91013987  .00009613  00000-0  62086-3 0  9997,2 52344  53.2161 283.9031 0002507  32.6654 327.4493 15.08864491 31332,6917.806,95.436,541.405,537.936,0.0
52344.0,STARLINK-3851,PAYLOAD,2022-11-04 02:36:45,15.08868593,0.000232,53.2157,283.0111,29.9026,330.2098,0.0008618,0.00013465,0.0,0 STARLINK-3851,1 52344U 22045P   22308.10885951  .00013465  00000-0  86180-3 0  9998,2 52344  53.2157 283.0111 0002320  29.9026 330.2098 15.08868593 31365,6917.793000000002,95.436,541.263,538.053,0.0
52344.0,STARLINK-3851,PAYLOAD,2022-11-04 10:33:40,15.08856706,0.0002415,53.2157,281.5246,30.2722,329.8409,0.00029823,4.463e-05,0.0,0 STARLINK-3851,1 52344U 22045P   22308.44005734  .00004463  00000-0  29823-3 0  9997,2 52344  53.2157 281.5246 0002415  30.2722 329.8409 15.08856706 31419,6917.829000000002,95.436,541.365,538.024,0.0
52344.0,STARLINK-3851,PAYLOAD,2022-11-05 10:24:29,15.08829012,0.0002581,53.2162,277.064,31.6419,328.4728,-0.00015436,-2.744e-05,0.0,0 STARLINK-3851,1 52344U 22045P   22309.43366947 -.00002744  00000-0 -15436-3 0  9990,2 52344  53.2162 277.0640 0002581  31.6419 328.4728 15.08829012 31560,6917.9140000000025,95.438,541.564,537.993,0.0
52344.0,STARLINK-3851,PAYLOAD,2022-11-05 15:10:38,15.08817772,0.0002546,53.216,276.1711,32.8575,327.2575,-0.00046414,-7.663e-05,0.0,0 STARLINK-3851,1 52344U 22045P   22309.63239233 -.00007663  00000-0 -46414-3 0  9994,2 52344  53.2160 276.1711 0002546  32.8575 327.2575 15.08817772 31594,6917.948,95.439,541.575,538.052,0.0
52344.0,STARLINK-3851,PAYLOAD,2022-11-06 10:15:16,15.08829497,0.0002344,53.2154,272.603,32.1756,327.9379,0.00063499,9.829e-05,0.0,0 STARLINK-3851,1 52344U 22045P   22310.42727981  .00009829  00000-0  63499-3 0  9991,2 52344  53.2154 272.6030 0002344  32.1756 327.9379 15.08829497 31712,6917.9119999999975,95.438,541.399,538.156,0.0
52344.0,STARLINK-3851,PAYLOAD,2022-11-07 05:19:54,15.08849629,0.0002458,53.216,269.0345,33.9709,326.144,0.00070557,0.00010962,0.0,0 STARLINK-3851,1 52344U 22045P   22311.22215939  .00010962  00000-0  70557-3 0  9998,2 52344  53.2160 269.0345 0002458  33.9709 326.1440 15.08849629 31833,6917.851,95.437,541.4159999999998,538.016,0.0
52344.0,STARLINK-3851,PAYLOAD,2022-11-07 14:52:13,15.08837237,0.0002458,53.2158,267.25,33.6351,326.4797,7.4135e-05,8.92e-06,0.0,0 STARLINK-3851,1 52344U 22045P   22311.61960094  .00000892  00000-0  74135-4 0  9998,2 52344  53.2158 267.2500 0002458  33.6351 326.4797 15.08837237 31899,6917.889,95.438,541.4540000000002,538.053,0.0
52344.0,STARLINK-3851,PAYLOAD,2022-11-08 06:46:04,15.08857276,0.0002424,53.2166,264.2765,32.3069,327.8071,0.00073012,0.00011356,0.0,0 STARLINK-3851,1 52344U 22045P   22312.28199617  .00011356  00000-0  73012-3 0  9996,2 52344  53.2166 264.2765 0002424  32.3069 327.8071 15.08857276 31999,6917.828,95.436,541.369,538.016,0.0
52344.0,STARLINK-3851,PAYLOAD,2022-11-08 08:21:27,15.08860927,0.0002416,53.2166,263.97900000000004,32.4331,327.6809,0.00083256,0.00012995,0.0,0 STARLINK-3851,1 52344U 22045P   22312.34823490  .00012995  00000-0  83256-3 0  9997,2 52344  53.2166 263.9790 0002416  32.4331 327.6809 15.08860927 32004,6917.816,95.436,541.3530000000002,538.01,0.0
52344.0,STARLINK-3851,PAYLOAD,2022-11-08 21:04:31,15.08884369,0.0002407,53.2169,261.6001,32.9705,327.1437,0.0010824,0.00017001,0.0,0 STARLINK-3851,1 52344U 22045P   22312.87814142  .00017001  00000-0  10824-2 0  9992,2 52344  53.2169 261.6001 0002407  32.9705 327.1437 15.08884369 32083,6917.745,95.435,541.275,537.945,0.0
52344.0,STARLINK-3851,PAYLOAD,2022-11-09 03:26:03,15.08891451,0.0002395,53.217,260.4108,32.7421,327.3719,0.00091994,0.00014404,0.0,0 STARLINK-3851,1 52344U 22045P   22313.14309255  .00014404  00000-0  91994-3 0  9999,2 52344  53.2170 260.4108 0002395  32.7421 327.3719 15.08891451 32129,6917.723000000001,95.434,541.245,537.931,0.0
52344.0,STARLINK-3851,PAYLOAD,2022-11-09 08:12:12,15.08886977,0.0002348,53.2169,259.5183,29.5542,330.5582,0.00047251,7.249e-05,0.0,0 STARLINK-3851,1 52344U 22045P   22313.34180760  .00007249  00000-0  47251-3 0  9995,2 52344  53.2169 259.5183 0002348  29.5542 330.5582 15.08886977 32159,6917.736999999999,95.435,541.226,537.9780000000002,0.0
52344.0,STARLINK-3851,PAYLOAD,2022-11-09 20:55:18,15.08826178,0.00024,53.2172,257.14,36.7722,323.3435,-0.00096037,-0.00015535,0.0,0 STARLINK-3851,1 52344U 22045P   22313.87173923 -.00015535  00000-0 -96037-3 0  9991,2 52344  53.2172 257.1400 0002400  36.7722 323.3435 15.08826178 32231,6917.9230000000025,95.438,541.448,538.127,0.0
52344.0,STARLINK-3851,PAYLOAD,2022-11-10 03:16:51,15.08806286,0.0002327,53.2171,255.9505,29.9791,330.1334,-0.00081197,-0.00013176,0.0,0 STARLINK-3851,1 52344U 22045P   22314.13670809 -.00013176  00000-0 -81197-3 0  9996,2 52344  53.2171 255.9505 0002327  29.9791 330.1334 15.08806286 32276,6917.983,95.44,541.4580000000002,538.239,0.0
52344.0,STARLINK-3851,PAYLOAD,2022-11-11 04:43:04,15.08806557,0.0002317,53.217,251.1933,34.7052,325.409,0.00032754,4.924e-05,0.0,0 STARLINK-3851,1 52344U 22045P   22315.19657619  .00004924  00000-0  32754-3 0  9991,2 52344  53.2170 251.1933 0002317  34.7052 325.4090 15.08806557 32436,6917.983,95.44,541.451,538.245,0.0
52344.0,STARLINK-3851,PAYLOAD,2022-11-11 06:18:27,15.08805375,0.0002346,53.2167,250.8955,33.4017,326.7123,0.00023617,3.469e-05,0.0,0 STARLINK-3851,1 52344U 22045P   22315.26281801  .00003469  00000-0  23617-3 0  9996,2 52344  53.2167 250.8955 0002346  33.4017 326.7123 15.08805375 32440,6917.986,95.44,541.474,538.2280000000002,0.0
52344.0,STARLINK-3851,PAYLOAD,2022-11-11 19:01:33,15.08815916,0.0002591,53.2171,248.5144,33.3995,326.716,0.0004926,7.555e-05,0.0,0 STARLINK-3851,1 52344U 22045P   22315.79274726  .00007555  00000-0  49260-3 0  9994,2 52344  53.2171 248.5144 0002591  33.3995 326.7160 15.08815916 32527,6917.954000000002,95.439,541.611,538.0269999999998,0.0
52344.0,STARLINK-3851,PAYLOAD,2022-11-12 04:33:52,15.08841636,0.0002395,53.2165,246.7322,35.1618,324.9532,0.0011232999999999,0.00017636,0.0,0 STARLINK-3851,1 52344U 22045P   22316.19018624  .00017636  00000-0  11233-2 0  9991,2 52344  53.2165 246.7322 0002395  35.1618 324.9532 15.08841636 32589,6917.875,95.437,541.3969999999998,538.0840000000002,0.0
52344.0,STARLINK-3851,PAYLOAD,2022-11-12 12:30:47,15.08855527,0.0002426,53.2166,245.2456,36.9043,323.2116,0.0011167,0.00017537,0.0,0 STARLINK-3851,1 52344U 22045P   22316.52138303  .00017537  00000-0  11167-2 0  9991,2 52344  53.2166 245.2456 0002426  36.9043 323.2116 15.08855527 32638,6917.833000000001,95.437,541.376,538.02,0.0
52344.0,STARLINK-3851,PAYLOAD,2022-11-12 20:27:43,15.08855611,0.0002507,53.2167,243.7597,40.4158,319.702,0.00065874,0.00010216,0.0,0 STARLINK-3851,1 52344U 22045P   22316.85258160  .00010216  00000-0  65874-3 0  9993,2 52344  53.2167 243.7597 0002507  40.4158 319.7020 15.08855611 32688,6917.833000000001,95.437,541.432,537.9630000000002,0.0
52344.0,STARLINK-3851,PAYLOAD,2022-11-13 02:49:15,15.08857432,0.0002279,53.2159,242.5712,37.4909,322.6241,0.00088152,0.00013776,0.0,0 STARLINK-3851,1 52344U 22045P   22317.11753880  .00013776  00000-0  88152-3 0  9990,2 52344  53.2159 242.5712 0002279  37.4909 322.6241 15.08857432 32727,6917.8269999999975,95.436,541.269,538.116,0.0
